{
    "links": {
        "self": "http://www.neowsapp.com/rest/v1/neo/54054453?api_key=iIulBulltgU6a56xZRHN4H3l9WmuAYTsLGpBGhQ2"
    },
    "id": "54054453",
    "neo_reference_id": "54054453",
    "name": "(2020 RP9)",
    "designation": "2020 RP9",
    "nasa_jpl_url": "http://ssd.jpl.nasa.gov/sbdb.cgi?sstr=54054453",
    "absolute_magnitude_h": 24.237,
    "estimated_diameter": {
        "kilometers": {
            "estimated_diameter_min": 0.037770695,
            "estimated_diameter_max": 0.0844578417
        },
        "meters": {
            "estimated_diameter_min": 37.7706950406,
            "estimated_diameter_max": 84.4578416681
        },
        "miles": {
            "estimated_diameter_min": 0.0234696145,
            "estimated_diameter_max": 0.0524796535
        },
        "feet": {
            "estimated_diameter_min": 123.9196071169,
            "estimated_diameter_max": 277.0926652583
        }
    },
    "is_potentially_hazardous_asteroid": false,
    "close_approach_data": [
        {
            "close_approach_date": "1937-02-21",
            "close_approach_date_full": "1937-Feb-21 06:54",
            "epoch_date_close_approach": -1036947960000,
            "relative_velocity": {
                "kilometers_per_second": "21.4188752107",
                "kilometers_per_hour": "77107.950758592",
                "miles_per_hour": "47911.8819588596"
            },
            "miss_distance": {
                "astronomical": "0.3997448595",
                "lunar": "155.5007503455",
                "kilometers": "59800979.524649265",
                "miles": "37158605.609179257"
            },
            "orbiting_body": "Earth"
        },
        {
            "close_approach_date": "2012-05-16",
            "close_approach_date_full": "2012-May-16 22:14",
            "epoch_date_close_approach": 1337206440000,
            "relative_velocity": {
                "kilometers_per_second": "10.2367246818",
                "kilometers_per_hour": "36852.2088546384",
                "miles_per_hour": "22898.5294408168"
            },
            "miss_distance": {
                "astronomical": "0.0860435358",
                "lunar": "33.4709354262",
                "kilometers": "12871929.682948746",
                "miles": "7998246.2213788548"
            },
            "orbiting_body": "Mars"
        },
        {
            "close_approach_date": "2020-10-23",
            "close_approach_date_full": "2020-Oct-23 23:53",
            "epoch_date_close_approach": 1603497180000,
            "relative_velocity": {
                "kilometers_per_second": "7.3674851371",
                "kilometers_per_hour": "26522.9464937257",
                "miles_per_hour": "16480.327503282"
            },
            "miss_distance": {
                "astronomical": "0.1139495355",
                "lunar": "44.3263693095",
                "kilometers": "17046607.798289385",
                "miles": "10592270.915728113"
            },
            "orbiting_body": "Earth"
        },
        {
            "close_approach_date": "2104-09-27",
            "close_approach_date_full": "2104-Sep-27 10:07",
            "epoch_date_close_approach": 4251953220000,
            "relative_velocity": {
                "kilometers_per_second": "13.7136626758",
                "kilometers_per_hour": "49369.1856327054",
                "miles_per_hour": "30676.0920393885"
            },
            "miss_distance": {
                "astronomical": "0.1420494369",
                "lunar": "55.2572309541",
                "kilometers": "21250293.194939403",
                "miles": "13204319.8988856414"
            },
            "orbiting_body": "Earth"
        },
        {
            "close_approach_date": "2112-02-18",
            "close_approach_date_full": "2112-Feb-18 11:32",
            "epoch_date_close_approach": 4485238320000,
            "relative_velocity": {
                "kilometers_per_second": "17.8297581075",
                "kilometers_per_hour": "64187.129186946",
                "miles_per_hour": "39883.3859106332"
            },
            "miss_distance": {
                "astronomical": "0.2807090524",
                "lunar": "109.1958213836",
                "kilometers": "41993476.328758388",
                "miles": "26093536.2173382344"
            },
            "orbiting_body": "Earth"
        }
    ],
    "orbital_data": {
        "orbit_id": "2",
        "orbit_determination_date": "2020-09-25 06:31:58",
        "first_observation_date": "2020-09-13",
        "last_observation_date": "2020-09-25",
        "data_arc_in_days": 12,
        "observations_used": 11,
        "orbit_uncertainty": "7",
        "minimum_orbit_intersection": ".0524992",
        "jupiter_tisserand_invariant": "4.498",
        "epoch_osculation": "2459000.5",
        "eccentricity": ".4083075489709926",
        "semi_major_axis": "1.472643892370414",
        "inclination": "6.757340563407",
        "ascending_node_longitude": "168.1209333407216",
        "orbital_period": "652.7472302437964",
        "perihelion_distance": ".8713522741695482",
        "perihelion_argument": "264.2041968464157",
        "aphelion_distance": "2.07393551057128",
        "perihelion_time": "2459180.687744754834",
        "mean_anomaly": "260.6237252243681",
        "mean_motion": ".5515151705286326",
        "equinox": "J2000",
        "orbit_class": {
            "orbit_class_type": "APO",
            "orbit_class_description": "Near-Earth asteroid orbits which cross the Earth’s orbit similar to that of 1862 Apollo",
            "orbit_class_range": "a (semi-major axis) > 1.0 AU; q (perihelion) < 1.017 AU"
        }
    },
    "is_sentry_object": false
}